KUIPER-00196            
1 67144U 25301M   26062.46073042  .00029360  00000+0  76726-3 0  9995
2 67144  51.8698  95.0011 0003911   1.2466 358.8530 15.38525279 12787
KUIPER-00204            
1 67145U 25301N   26062.30704588  .00022080  00000+0  85919-3 0  9991
2 67145  51.8840 100.5817 0002842 325.7353  34.3445 15.25931357 12802
KUIPER-00210            
1 67146U 25301P   26062.58336806 -.00014634  00000+0 -16092-2 0  9999
2 67146  51.8976 100.3045 0011297  50.4595 261.1383 14.86594466  5869
KUIPER-00221            
1 67147U 25301Q   26062.53135386  .00007703  00000+0  10375-2 0  9990
2 67147  51.9008 107.8385 0000591  91.4848 268.6182 14.79967503 12615
KUIPER-00232            
1 67148U 25301R   26062.58336806 -.01040755  00000+0 -54087-1 0  9990
2 67148  51.8817  95.0919 0002800 131.6607 171.5374 15.18637918  5029
KUIPER-00241            
1 67149U 25301S   26062.58336806  .00021831  00000+0  28643-2 0  9992
2 67149  51.9013 102.6171 0001812  64.4659 183.5067 14.80211994  5422
KUIPER-00245            
1 67150U 25301T   26062.32602523  .00004950  00000+0  67728-3 0  9999
2 67150  51.9018 111.2666 0000444  58.6910 301.4096 14.79966199 12545
KUIPER-00246            
1 67151U 25301U   26062.58336806  .00032340  00000+0  20689-2 0  9994
2 67151  51.8955  96.3860 0005052  49.7498  33.9837 15.08301613  5747
KUIPER-00247            
1 67152U 25301V   26062.30090384  .00032301  00000+0  89516-3 0  9995
2 67152  51.8628  96.8387 0014122  33.9918 326.1971 15.36571319 12741
KUIPER-00248            
1 67153U 25301W   26062.33430110  .00040303  00000+0  10935-2 0  9993
2 67153  51.8670  96.3560 0011205  21.1403 339.0044 15.37157242 12924
KUIPER-00249            
1 67154U 25301X   26062.30820606  .00056514  00000+0  14941-2 0  9996
2 67154  51.8637  96.1702 0010236  22.5516 337.5919 15.37818837 12756
KUIPER-00250            
1 67155U 25301Y   26062.58336806  .00026461  00000+0  20577-2 0  9991
2 67155  51.8901  97.6853 0009213  31.2604 136.5833 15.01069805  5592
KUIPER-00251            
1 67156U 25301Z   26062.45436244  .00025468  00000+0  69222-3 0  9992
2 67156  51.8645  95.6544 0011154  25.0237 335.1288 15.37339999 12966
KUIPER-00252            
1 67157U 25301AA  26062.34170942  .00018151  00000+0  50087-3 0  9991
2 67157  51.8654  96.3881 0012542  30.1775 329.9932 15.37074925 12754
KUIPER-00261            
1 67158U 25301AB  26062.58336806 -.01057692  00000+0 -92538-1 0  9992
2 67158  51.9168  97.9456 0011103  35.6362 248.5626 14.99241407  5010
KUIPER-00265            
1 67159U 25301AC  26062.32331894  .00004729  00000+0  64843-3 0  9997
2 67159  51.9020 113.7637 0000665  39.6252 320.4758 14.79966340 12549
