[{"OBJECT_NAME":"KUIPER-00196","OBJECT_ID":"2025-301M","EPOCH":"2026-03-03T11:03:27.108288","MEAN_MOTION":15.38525279,"ECCENTRICITY":0.00039113,"INCLINATION":51.8698,"RA_OF_ASC_NODE":95.0011,"ARG_OF_PERICENTER":1.2466,"MEAN_ANOMALY":358.853,"EPHEMERIS_TYPE":0,"CLASSIFICATION_TYPE":"U","NORAD_CAT_ID":67144,"ELEMENT_SET_NO":999,"REV_AT_EPOCH":1278,"BSTAR":0.00076726307,"MEAN_MOTION_DOT":0.0002936,"MEAN_MOTION_DDOT":0},{"OBJECT_NAME":"KUIPER-00204","OBJECT_ID":"2025-301N","EPOCH":"2026-03-03T07:22:08.764032","MEAN_MOTION":15.25931357,"ECCENTRICITY":0.00028422,"INCLINATION":51.884,"RA_OF_ASC_NODE":100.5817,"ARG_OF_PERICENTER":325.7353,"MEAN_ANOMALY":34.3445,"EPHEMERIS_TYPE":0,"CLASSIFICATION_TYPE":"U","NORAD_CAT_ID":67145,"ELEMENT_SET_NO":999,"REV_AT_EPOCH":1280,"BSTAR":0.00085919361,"MEAN_MOTION_DOT":0.0002208,"MEAN_MOTION_DDOT":0},{"OBJECT_NAME":"KUIPER-00210","OBJECT_ID":"2025-301P","EPOCH":"2026-03-03T14:00:03.000384","MEAN_MOTION":14.86594466,"ECCENTRICITY":0.00112971,"INCLINATION":51.8976,"RA_OF_ASC_NODE":100.3045,"ARG_OF_PERICENTER":50.4595,"MEAN_ANOMALY":261.1383,"EPHEMERIS_TYPE":0,"CLASSIFICATION_TYPE":"U","NORAD_CAT_ID":67146,"ELEMENT_SET_NO":999,"REV_AT_EPOCH":586,"BSTAR":-0.0016091681,"MEAN_MOTION_DOT":-0.00014634,"MEAN_MOTION_DDOT":0},{"OBJECT_NAME":"KUIPER-00221","OBJECT_ID":"2025-301Q","EPOCH":"2026-03-03T12:45:08.973504","MEAN_MOTION":14.79967503,"ECCENTRICITY":5.911e-5,"INCLINATION":51.9008,"RA_OF_ASC_NODE":107.8385,"ARG_OF_PERICENTER":91.4848,"MEAN_ANOMALY":268.6182,"EPHEMERIS_TYPE":0,"CLASSIFICATION_TYPE":"U","NORAD_CAT_ID":67147,"ELEMENT_SET_NO":999,"REV_AT_EPOCH":1261,"BSTAR":0.0010374639,"MEAN_MOTION_DOT":7.703e-5,"MEAN_MOTION_DDOT":0},{"OBJECT_NAME":"KUIPER-00232","OBJECT_ID":"2025-301R","EPOCH":"2026-03-03T14:00:03.000384","MEAN_MOTION":15.18637918,"ECCENTRICITY":0.00028002,"INCLINATION":51.8817,"RA_OF_ASC_NODE":95.0919,"ARG_OF_PERICENTER":131.6607,"MEAN_ANOMALY":171.5374,"EPHEMERIS_TYPE":0,"CLASSIFICATION_TYPE":"U","NORAD_CAT_ID":67148,"ELEMENT_SET_NO":999,"REV_AT_EPOCH":502,"BSTAR":-0.054087216,"MEAN_MOTION_DOT":-0.01040755,"MEAN_MOTION_DDOT":0},{"OBJECT_NAME":"KUIPER-00241","OBJECT_ID":"2025-301S","EPOCH":"2026-03-03T14:00:03.000384","MEAN_MOTION":14.80211994,"ECCENTRICITY":0.00018124,"INCLINATION":51.9013,"RA_OF_ASC_NODE":102.6171,"ARG_OF_PERICENTER":64.4659,"MEAN_ANOMALY":183.5067,"EPHEMERIS_TYPE":0,"CLASSIFICATION_TYPE":"U","NORAD_CAT_ID":67149,"ELEMENT_SET_NO":999,"REV_AT_EPOCH":542,"BSTAR":0.0028643306,"MEAN_MOTION_DOT":0.00021831,"MEAN_MOTION_DDOT":0},{"OBJECT_NAME":"KUIPER-00245","OBJECT_ID":"2025-301T","EPOCH":"2026-03-03T07:49:28.579872","MEAN_MOTION":14.79966199,"ECCENTRICITY":4.445e-5,"INCLINATION":51.9018,"RA_OF_ASC_NODE":111.2666,"ARG_OF_PERICENTER":58.691,"MEAN_ANOMALY":301.4096,"EPHEMERIS_TYPE":0,"CLASSIFICATION_TYPE":"U","NORAD_CAT_ID":67150,"ELEMENT_SET_NO":999,"REV_AT_EPOCH":1254,"BSTAR":0.00067727876,"MEAN_MOTION_DOT":4.95e-5,"MEAN_MOTION_DDOT":0},{"OBJECT_NAME":"KUIPER-00246","OBJECT_ID":"2025-301U","EPOCH":"2026-03-03T14:00:03.000384","MEAN_MOTION":15.08301613,"ECCENTRICITY":0.00050523,"INCLINATION":51.8955,"RA_OF_ASC_NODE":96.386,"ARG_OF_PERICENTER":49.7498,"MEAN_ANOMALY":33.9837,"EPHEMERIS_TYPE":0,"CLASSIFICATION_TYPE":"U","NORAD_CAT_ID":67151,"ELEMENT_SET_NO":999,"REV_AT_EPOCH":574,"BSTAR":0.0020689089,"MEAN_MOTION_DOT":0.0003234,"MEAN_MOTION_DDOT":0},{"OBJECT_NAME":"KUIPER-00247","OBJECT_ID":"2025-301V","EPOCH":"2026-03-03T07:13:18.091776","MEAN_MOTION":15.36571319,"ECCENTRICITY":0.00141227,"INCLINATION":51.8628,"RA_OF_ASC_NODE":96.8387,"ARG_OF_PERICENTER":33.9918,"MEAN_ANOMALY":326.1971,"EPHEMERIS_TYPE":0,"CLASSIFICATION_TYPE":"U","NORAD_CAT_ID":67152,"ELEMENT_SET_NO":999,"REV_AT_EPOCH":1274,"BSTAR":0.00089515674,"MEAN_MOTION_DOT":0.00032301,"MEAN_MOTION_DDOT":0},{"OBJECT_NAME":"KUIPER-00248","OBJECT_ID":"2025-301W","EPOCH":"2026-03-03T08:01:23.615040","MEAN_MOTION":15.37157242,"ECCENTRICITY":0.00112052,"INCLINATION":51.867,"RA_OF_ASC_NODE":96.356,"ARG_OF_PERICENTER":21.1403,"MEAN_ANOMALY":339.0044,"EPHEMERIS_TYPE":0,"CLASSIFICATION_TYPE":"U","NORAD_CAT_ID":67153,"ELEMENT_SET_NO":999,"REV_AT_EPOCH":1292,"BSTAR":0.0010935323,"MEAN_MOTION_DOT":0.00040303,"MEAN_MOTION_DDOT":0},{"OBJECT_NAME":"KUIPER-00249","OBJECT_ID":"2025-301X","EPOCH":"2026-03-03T07:23:49.003584","MEAN_MOTION":15.37818837,"ECCENTRICITY":0.00102364,"INCLINATION":51.8637,"RA_OF_ASC_NODE":96.1702,"ARG_OF_PERICENTER":22.5516,"MEAN_ANOMALY":337.5919,"EPHEMERIS_TYPE":0,"CLASSIFICATION_TYPE":"U","NORAD_CAT_ID":67154,"ELEMENT_SET_NO":999,"REV_AT_EPOCH":1275,"BSTAR":0.0014940659,"MEAN_MOTION_DOT":0.00056514,"MEAN_MOTION_DDOT":0},{"OBJECT_NAME":"KUIPER-00250","OBJECT_ID":"2025-301Y","EPOCH":"2026-03-03T14:00:03.000384","MEAN_MOTION":15.01069805,"ECCENTRICITY":0.0009213,"INCLINATION":51.8901,"RA_OF_ASC_NODE":97.6853,"ARG_OF_PERICENTER":31.2604,"MEAN_ANOMALY":136.5833,"EPHEMERIS_TYPE":0,"CLASSIFICATION_TYPE":"U","NORAD_CAT_ID":67155,"ELEMENT_SET_NO":999,"REV_AT_EPOCH":559,"BSTAR":0.0020577376,"MEAN_MOTION_DOT":0.00026461,"MEAN_MOTION_DDOT":0},{"OBJECT_NAME":"KUIPER-00251","OBJECT_ID":"2025-301Z","EPOCH":"2026-03-03T10:54:16.914816","MEAN_MOTION":15.37339999,"ECCENTRICITY":0.00111547,"INCLINATION":51.8645,"RA_OF_ASC_NODE":95.6544,"ARG_OF_PERICENTER":25.0237,"MEAN_ANOMALY":335.1288,"EPHEMERIS_TYPE":0,"CLASSIFICATION_TYPE":"U","NORAD_CAT_ID":67156,"ELEMENT_SET_NO":999,"REV_AT_EPOCH":1296,"BSTAR":0.00069221663,"MEAN_MOTION_DOT":0.00025468,"MEAN_MOTION_DDOT":0},{"OBJECT_NAME":"KUIPER-00252","OBJECT_ID":"2025-301AA","EPOCH":"2026-03-03T08:12:03.693888","MEAN_MOTION":15.37074925,"ECCENTRICITY":0.00125429,"INCLINATION":51.8654,"RA_OF_ASC_NODE":96.3881,"ARG_OF_PERICENTER":30.1775,"MEAN_ANOMALY":329.9932,"EPHEMERIS_TYPE":0,"CLASSIFICATION_TYPE":"U","NORAD_CAT_ID":67157,"ELEMENT_SET_NO":999,"REV_AT_EPOCH":1275,"BSTAR":0.0005008672,"MEAN_MOTION_DOT":0.00018151,"MEAN_MOTION_DDOT":0},{"OBJECT_NAME":"KUIPER-00261","OBJECT_ID":"2025-301AB","EPOCH":"2026-03-03T14:00:03.000384","MEAN_MOTION":14.99241407,"ECCENTRICITY":0.00111034,"INCLINATION":51.9168,"RA_OF_ASC_NODE":97.9456,"ARG_OF_PERICENTER":35.6362,"MEAN_ANOMALY":248.5626,"EPHEMERIS_TYPE":0,"CLASSIFICATION_TYPE":"U","NORAD_CAT_ID":67158,"ELEMENT_SET_NO":999,"REV_AT_EPOCH":501,"BSTAR":-0.092537627,"MEAN_MOTION_DOT":-0.01057692,"MEAN_MOTION_DDOT":0},{"OBJECT_NAME":"KUIPER-00265","OBJECT_ID":"2025-301AC","EPOCH":"2026-03-03T07:45:34.756416","MEAN_MOTION":14.7996634,"ECCENTRICITY":6.656e-5,"INCLINATION":51.902,"RA_OF_ASC_NODE":113.7637,"ARG_OF_PERICENTER":39.6252,"MEAN_ANOMALY":320.4758,"EPHEMERIS_TYPE":0,"CLASSIFICATION_TYPE":"U","NORAD_CAT_ID":67159,"ELEMENT_SET_NO":999,"REV_AT_EPOCH":1254,"BSTAR":0.00064842631,"MEAN_MOTION_DOT":4.729e-5,"MEAN_MOTION_DDOT":0}]
